{
  "norad_id": 58650,
  "name": "SHIYAN-24C 01",
  "history": [
    {
      "epoch": "2026-03-28T17:32:52.029600",
      "apogee_km": 576.7161528885899,
      "perigee_km": 569.5452251406023,
      "latitude_deg": -67.5500552800868,
      "longitude_deg": 115.19114399980754,
      "semi_major_axis_km": 6951.267689014596,
      "eccentricity": 0.0005158,
      "inclination_deg": 97.3989,
      "raan_deg": 59.6369,
      "arg_perigee_deg": 96.2408,
      "mean_anomaly_deg": 263.9403,
      "mean_motion_rev_day": 14.97982508
    }
  ]
}